{
    "links": {
        "self": "http://www.neowsapp.com/rest/v1/neo/3771478?api_key=iIulBulltgU6a56xZRHN4H3l9WmuAYTsLGpBGhQ2"
    },
    "id": "3771478",
    "neo_reference_id": "3771478",
    "name": "(2017 ET22)",
    "designation": "2017 ET22",
    "nasa_jpl_url": "http://ssd.jpl.nasa.gov/sbdb.cgi?sstr=3771478",
    "absolute_magnitude_h": 22.1,
    "estimated_diameter": {
        "kilometers": {
            "estimated_diameter_min": 0.1010543415,
            "estimated_diameter_max": 0.2259643771
        },
        "meters": {
            "estimated_diameter_min": 101.054341542,
            "estimated_diameter_max": 225.9643771094
        },
        "miles": {
            "estimated_diameter_min": 0.0627922373,
            "estimated_diameter_max": 0.140407711
        },
        "feet": {
            "estimated_diameter_min": 331.5431259047,
            "estimated_diameter_max": 741.3529669956
        }
    },
    "is_potentially_hazardous_asteroid": false,
    "close_approach_data": [
        {
            "close_approach_date": "2015-03-10",
            "close_approach_date_full": "2015-Mar-10 20:37",
            "epoch_date_close_approach": 1426019820000,
            "relative_velocity": {
                "kilometers_per_second": "26.3899782687",
                "kilometers_per_hour": "95003.9217671832",
                "miles_per_hour": "59031.74238917"
            },
            "miss_distance": {
                "astronomical": "0.3677082489",
                "lunar": "143.0385088221",
                "kilometers": "55008370.816869843",
                "miles": "34180616.6493481134"
            },
            "orbiting_body": "Earth"
        },
        {
            "close_approach_date": "2017-04-02",
            "close_approach_date_full": "2017-Apr-02 06:45",
            "epoch_date_close_approach": 1491115500000,
            "relative_velocity": {
                "kilometers_per_second": "13.9613855294",
                "kilometers_per_hour": "50260.9879059505",
                "miles_per_hour": "31230.2232907835"
            },
            "miss_distance": {
                "astronomical": "0.1507484469",
                "lunar": "58.6411458441",
                "kilometers": "22551646.562048103",
                "miles": "14012943.3848377014"
            },
            "orbiting_body": "Earth"
        },
        {
            "close_approach_date": "2017-06-08",
            "close_approach_date_full": "2017-Jun-08 19:30",
            "epoch_date_close_approach": 1496950200000,
            "relative_velocity": {
                "kilometers_per_second": "13.3329110553",
                "kilometers_per_hour": "47998.4797989619",
                "miles_per_hour": "29824.3887395272"
            },
            "miss_distance": {
                "astronomical": "0.0779701874",
                "lunar": "30.3304028986",
                "kilometers": "11664173.958540838",
                "miles": "7247781.6137380444"
            },
            "orbiting_body": "Venus"
        },
        {
            "close_approach_date": "2019-06-13",
            "close_approach_date_full": "2019-Jun-13 22:51",
            "epoch_date_close_approach": 1560466260000,
            "relative_velocity": {
                "kilometers_per_second": "15.0053314387",
                "kilometers_per_hour": "54019.1931792707",
                "miles_per_hour": "33565.4258951974"
            },
            "miss_distance": {
                "astronomical": "0.3126133625",
                "lunar": "121.6065980125",
                "kilometers": "46766293.163537875",
                "miles": "29059227.077557675"
            },
            "orbiting_body": "Earth"
        },
        {
            "close_approach_date": "2023-09-21",
            "close_approach_date_full": "2023-Sep-21 06:17",
            "epoch_date_close_approach": 1695277020000,
            "relative_velocity": {
                "kilometers_per_second": "23.9211934184",
                "kilometers_per_hour": "86116.2963061961",
                "miles_per_hour": "53509.3175575917"
            },
            "miss_distance": {
                "astronomical": "0.2762110894",
                "lunar": "107.4461137766",
                "kilometers": "41320590.644619578",
                "miles": "25675424.4413150564"
            },
            "orbiting_body": "Earth"
        }
    ],
    "orbital_data": {
        "orbit_id": "6",
        "orbit_determination_date": "2019-03-27 07:09:18",
        "first_observation_date": "2017-03-06",
        "last_observation_date": "2017-03-26",
        "data_arc_in_days": 20,
        "observations_used": 50,
        "orbit_uncertainty": "7",
        "minimum_orbit_intersection": ".0836922",
        "jupiter_tisserand_invariant": "4.122",
        "epoch_osculation": "2459000.5",
        "eccentricity": ".5568992207697979",
        "semi_major_axis": "1.623288077937087",
        "inclination": "9.005507602136937",
        "ascending_node_longitude": "131.3562181048706",
        "orbital_period": "755.4258213108549",
        "perihelion_distance": ".7192802122490201",
        "perihelion_argument": "135.312995816229",
        "aphelion_distance": "2.527295943625153",
        "perihelion_time": "2458650.560674197373",
        "mean_anomaly": "166.7644310467726",
        "mean_motion": ".4765524156631407",
        "equinox": "J2000",
        "orbit_class": {
            "orbit_class_type": "APO",
            "orbit_class_description": "Near-Earth asteroid orbits which cross the Earth’s orbit similar to that of 1862 Apollo",
            "orbit_class_range": "a (semi-major axis) > 1.0 AU; q (perihelion) < 1.017 AU"
        }
    },
    "is_sentry_object": false
}